start=new Date('2022-03-23T00:00:00.000Z').valueOf();
sats=[{"PERIOD":"95.592","INCLINATION":"53.0560","ELEMENT_SET_NO":"999","SEMIMAJOR_AXIS":"6925.362","OBJECT_NAME":"STARLINK-1088","ECCENTRICITY":"0.00015060","MEAN_MOTION":"15.06395664","FILE":"3370190","RA_OF_ASC_NODE":"326.2127","TLE_LINE2":"2 44966  53.0560 326.2127 0001506  63.4302 296.6841 15.06395664122188","CENTER_NAME":"EARTH","EPOCH":"2022-03-22T20:28:41.000448","PERIAPSIS":"546.184","BSTAR":"0.00012602000000","LAUNCH_DATE":"2020-01-07","NORAD_CAT_ID":"44966","RCS_SIZE":"LARGE","TIME_SYSTEM":"UTC","REV_AT_EPOCH":"12218","REF_FRAME":"TEME","ARG_OF_PERICENTER":"63.4302","MEAN_MOTION_DOT":"0.00001596","OBJECT_ID":"2020-001BE","DECAY_DATE":null,"GP_ID":"199427230","SITE":"AFETR","COUNTRY_CODE":"US","EPHEMERIS_TYPE":"0","MEAN_ELEMENT_THEORY":"SGP4","OBJECT_TYPE":"PAYLOAD","TLE_LINE1":"1 44966U 20001BE  22081.85325232  .00001596  00000-0  12602-3 0  9990","CLASSIFICATION_TYPE":"U","MEAN_ANOMALY":"296.6841","MEAN_MOTION_DDOT":"0.0000000000000","APOAPSIS":"548.270"},{"REV_AT_EPOCH":"12219","REF_FRAME":"TEME","OBJECT_ID":"2020-001BF","MEAN_MOTION_DOT":"0.00002431","ARG_OF_PERICENTER":"67.2312","DECAY_DATE":null,"GP_ID":"199425481","SITE":"AFETR","COUNTRY_CODE":"US","EPHEMERIS_TYPE":"0","MEAN_ELEMENT_THEORY":"SGP4","OBJECT_TYPE":"PAYLOAD","MEAN_MOTION_DDOT":"0.0000000000000","MEAN_ANOMALY":"292.8860","CLASSIFICATION_TYPE":"U","TLE_LINE1":"1 44967U 20001BF  22081.87536202  .00002431  00000-0  18205-3 0  9998","APOAPSIS":"548.410","PERIOD":"95.592","SEMIMAJOR_AXIS":"6925.345","ELEMENT_SET_NO":"999","INCLINATION":"53.0530","ECCENTRICITY":"0.00017330","OBJECT_NAME":"STARLINK-1089","FILE":"3370190","MEAN_MOTION":"15.06401170","TLE_LINE2":"2 44967  53.0530 326.1226 0001733  67.2312 292.8860 15.06401170122190","RA_OF_ASC_NODE":"326.1226","EPOCH":"2022-03-22T21:00:31.278528","CENTER_NAME":"EARTH","PERIAPSIS":"546.010","LAUNCH_DATE":"2020-01-07","BSTAR":"0.00018205000000","NORAD_CAT_ID":"44967","TIME_SYSTEM":"UTC","RCS_SIZE":"LARGE"},{"EPHEMERIS_TYPE":"0","COUNTRY_CODE":"US","MEAN_ELEMENT_THEORY":"SGP4","OBJECT_TYPE":"PAYLOAD","APOAPSIS":"548.261","MEAN_MOTION_DDOT":"0.0000000000000","MEAN_ANOMALY":"298.5350","TLE_LINE1":"1 44968U 20001BG  22081.87167478  .00000348  00000-0  42268-4 0  9996","CLASSIFICATION_TYPE":"U","REV_AT_EPOCH":"12219","REF_FRAME":"TEME","OBJECT_ID":"2020-001BG","MEAN_MOTION_DOT":"0.00000348","ARG_OF_PERICENTER":"61.5792","DECAY_DATE":null,"SITE":"AFETR","GP_ID":"199426231","PERIAPSIS":"546.157","EPOCH":"2022-03-22T20:55:12.700992","CENTER_NAME":"EARTH","LAUNCH_DATE":"2020-01-07","BSTAR":"0.00004226800000","TIME_SYSTEM":"UTC","RCS_SIZE":"LARGE","NORAD_CAT_ID":"44968","SEMIMAJOR_AXIS":"6925.344","INCLINATION":"53.0562","ELEMENT_SET_NO":"999","PERIOD":"95.592","OBJECT_NAME":"STARLINK-1090","ECCENTRICITY":"0.00015190","TLE_LINE2":"2 44968  53.0562 326.1312 0001519  61.5792 298.5350 15.06401480122194","RA_OF_ASC_NODE":"326.1312","FILE":"3370190","MEAN_MOTION":"15.06401480"},{"MEAN_MOTION_DOT":"0.00001519","ARG_OF_PERICENTER":"67.7237","OBJECT_ID":"2020-001BH","REF_FRAME":"TEME","REV_AT_EPOCH":"12219","SITE":"AFETR","GP_ID":"199426980","DECAY_DATE":null,"MEAN_ELEMENT_THEORY":"SGP4","EPHEMERIS_TYPE":"0","COUNTRY_CODE":"US","APOAPSIS":"548.362","CLASSIFICATION_TYPE":"U","TLE_LINE1":"1 44969U 20001BH  22081.93065078  .00001519  00000-0  12087-3 0  9993","MEAN_MOTION_DDOT":"0.0000000000000","MEAN_ANOMALY":"292.3929","OBJECT_TYPE":"PAYLOAD","ECCENTRICITY":"0.00016730","OBJECT_NAME":"STARLINK-1092","ELEMENT_SET_NO":"999","INCLINATION":"53.0548","SEMIMAJOR_AXIS":"6925.339","PERIOD":"95.592","RA_OF_ASC_NODE":"325.8640","TLE_LINE2":"2 44969  53.0548 325.8640 0001673  67.7237 292.3929 15.06403163122196","MEAN_MOTION":"15.06403163","FILE":"3370190","PERIAPSIS":"546.045","CENTER_NAME":"EARTH","EPOCH":"2022-03-22T22:20:08.227392","TIME_SYSTEM":"UTC","RCS_SIZE":"LARGE","NORAD_CAT_ID":"44969","BSTAR":"0.00012087000000","LAUNCH_DATE":"2020-01-07"},{"OBJECT_ID":"2020-001BJ","MEAN_MOTION_DOT":"0.00000867","ARG_OF_PERICENTER":"76.8910","REV_AT_EPOCH":"12218","REF_FRAME":"TEME","SITE":"AFETR","GP_ID":"199426730","DECAY_DATE":null,"MEAN_ELEMENT_THEORY":"SGP4","EPHEMERIS_TYPE":"0","COUNTRY_CODE":"US","APOAPSIS":"548.197","MEAN_ANOMALY":"283.2235","MEAN_MOTION_DDOT":"0.0000000000000","TLE_LINE1":"1 44970U 20001BJ  22081.90853966  .00000867  00000-0  77129-4 0  9997","CLASSIFICATION_TYPE":"U","OBJECT_TYPE":"PAYLOAD","OBJECT_NAME":"STARLINK-1093","ECCENTRICITY":"0.00014000","SEMIMAJOR_AXIS":"6925.363","ELEMENT_SET_NO":"999","INCLINATION":"53.0547","PERIOD":"95.592","TLE_LINE2":"2 44970  53.0547 325.9606 0001400  76.8910 283.2235 15.06395335122186","RA_OF_ASC_NODE":"325.9606","FILE":"3370190","MEAN_MOTION":"15.06395335","PERIAPSIS":"546.258","EPOCH":"2022-03-22T21:48:17.826624","CENTER_NAME":"EARTH","TIME_SYSTEM":"UTC","RCS_SIZE":"LARGE","NORAD_CAT_ID":"44970","LAUNCH_DATE":"2020-01-07","BSTAR":"0.00007712900000"},{"APOAPSIS":"548.343","CLASSIFICATION_TYPE":"U","TLE_LINE1":"1 44972U 20001BL  22081.87905676 -.00000793  00000-0 -34361-4 0  9992","MEAN_ANOMALY":"288.7268","MEAN_MOTION_DDOT":"0.0000000000000","OBJECT_TYPE":"PAYLOAD","MEAN_ELEMENT_THEORY":"SGP4","EPHEMERIS_TYPE":"0","COUNTRY_CODE":"US","SITE":"AFETR","GP_ID":"199425982","DECAY_DATE":null,"MEAN_MOTION_DOT":"-0.00000793","ARG_OF_PERICENTER":"71.3895","OBJECT_ID":"2020-001BL","REV_AT_EPOCH":"12219","REF_FRAME":"TEME","RCS_SIZE":"LARGE","TIME_SYSTEM":"UTC","NORAD_CAT_ID":"44972","BSTAR":"-0.00003436100000","LAUNCH_DATE":"2020-01-07","PERIAPSIS":"546.114","CENTER_NAME":"EARTH","EPOCH":"2022-03-22T21:05:50.504064","RA_OF_ASC_NODE":"326.0912","TLE_LINE2":"2 44972  53.0576 326.0912 0001609  71.3895 288.7268 15.06395145122191","MEAN_MOTION":"15.06395145","FILE":"3370190","OBJECT_NAME":"STARLINK-1107","ECCENTRICITY":"0.00016090","INCLINATION":"53.0576","ELEMENT_SET_NO":"999","SEMIMAJOR_AXIS":"6925.363","PERIOD":"95.592"},{"MEAN_ELEMENT_THEORY":"SGP4","COUNTRY_CODE":"US","EPHEMERIS_TYPE":"0","MEAN_ANOMALY":"295.6341","MEAN_MOTION_DDOT":"0.0000000000000","CLASSIFICATION_TYPE":"U","TLE_LINE1":"1 44973U 20001BM  22081.85694152 -.00000794  00000-0 -34444-4 0  9998","APOAPSIS":"548.243","OBJECT_TYPE":"PAYLOAD","OBJECT_ID":"2020-001BM","MEAN_MOTION_DOT":"-0.00000794","ARG_OF_PERICENTER":"64.4795","REF_FRAME":"TEME","REV_AT_EPOCH":"12218","GP_ID":"199425731","SITE":"AFETR","DECAY_DATE":null,"EPOCH":"2022-03-22T20:33:59.747328","CENTER_NAME":"EARTH","PERIAPSIS":"546.259","NORAD_CAT_ID":"44973","TIME_SYSTEM":"UTC","RCS_SIZE":"LARGE","LAUNCH_DATE":"2020-01-07","BSTAR":"-0.00003444400000","ECCENTRICITY":"0.00014320","OBJECT_NAME":"STARLINK-1115","PERIOD":"95.593","SEMIMAJOR_AXIS":"6925.386","ELEMENT_SET_NO":"999","INCLINATION":"53.0541","FILE":"3370190","MEAN_MOTION":"15.06387833","TLE_LINE2":"2 44973  53.0541 326.2044 0001432  64.4795 295.6341 15.06387833122181","RA_OF_ASC_NODE":"326.2044"},{"OBJECT_TYPE":"PAYLOAD","APOAPSIS":"548.332","MEAN_ANOMALY":"292.4695","MEAN_MOTION_DDOT":"0.0000000000000","CLASSIFICATION_TYPE":"U","TLE_LINE1":"1 45044U 20006A   22081.83113705  .00000265  00000-0  36715-4 0  9995","EPHEMERIS_TYPE":"0","COUNTRY_CODE":"US","MEAN_ELEMENT_THEORY":"SGP4","DECAY_DATE":null,"SITE":"AFETR","GP_ID":"199426238","REF_FRAME":"TEME","REV_AT_EPOCH":"11851","OBJECT_ID":"2020-006A","MEAN_MOTION_DOT":"0.00000265","ARG_OF_PERICENTER":"67.6462","LAUNCH_DATE":"2020-01-29","BSTAR":"0.00003671500000","TIME_SYSTEM":"UTC","RCS_SIZE":"LARGE","NORAD_CAT_ID":"45044","PERIAPSIS":"546.138","EPOCH":"2022-03-22T19:56:50.241120","CENTER_NAME":"EARTH","TLE_LINE2":"2 45044  53.0543 286.3167 0001584  67.6462 292.4695 15.06393116118519","RA_OF_ASC_NODE":"286.3167","FILE":"3370190","MEAN_MOTION":"15.06393116","SEMIMAJOR_AXIS":"6925.370","INCLINATION":"53.0543","ELEMENT_SET_NO":"999","PERIOD":"95.593","OBJECT_NAME":"STARLINK-1132","ECCENTRICITY":"0.00015840"},{"RA_OF_ASC_NODE":"306.0645","TLE_LINE2":"2 45045  53.0548 306.0645 0001481  67.5328 292.5818 15.06398955118246","MEAN_MOTION":"15.06398955","FILE":"3370190","OBJECT_NAME":"STARLINK-1120","ECCENTRICITY":"0.00014810","ELEMENT_SET_NO":"999","INCLINATION":"53.0548","SEMIMAJOR_AXIS":"6925.352","PERIOD":"95.592","RCS_SIZE":"LARGE","TIME_SYSTEM":"UTC","NORAD_CAT_ID":"45045","BSTAR":"-0.00001316900000","LAUNCH_DATE":"2020-01-29","PERIAPSIS":"546.191","CENTER_NAME":"EARTH","EPOCH":"2022-03-22T21:13:48.007488","SITE":"AFETR","GP_ID":"199426987","DECAY_DATE":null,"ARG_OF_PERICENTER":"67.5328","MEAN_MOTION_DOT":"-0.00000478","OBJECT_ID":"2020-006B","REV_AT_EPOCH":"11824","REF_FRAME":"TEME","APOAPSIS":"548.242","TLE_LINE1":"1 45045U 20006B   22081.88458342 -.00000478  00000-0 -13169-4 0  9996","CLASSIFICATION_TYPE":"U","MEAN_ANOMALY":"292.5818","MEAN_MOTION_DDOT":"0.0000000000000","OBJECT_TYPE":"PAYLOAD","MEAN_ELEMENT_THEORY":"SGP4","EPHEMERIS_TYPE":"0","COUNTRY_CODE":"US"},{"MEAN_ELEMENT_THEORY":"SGP4","COUNTRY_CODE":"US","EPHEMERIS_TYPE":"0","MEAN_ANOMALY":"231.3869","MEAN_MOTION_DDOT":"0.0000000000000","TLE_LINE1":"1 45046U 20006C   22081.89774230  .00009773  00000-0  59301-3 0  9997","CLASSIFICATION_TYPE":"U","APOAPSIS":"533.913","OBJECT_TYPE":"PAYLOAD","OBJECT_ID":"2020-006C","ARG_OF_PERICENTER":"128.7272","MEAN_MOTION_DOT":"0.00009773","REF_FRAME":"TEME","REV_AT_EPOCH":"11831","GP_ID":"199426737","SITE":"AFETR","DECAY_DATE":null,"EPOCH":"2022-03-22T21:32:44.934720","CENTER_NAME":"EARTH","PERIAPSIS":"531.591","NORAD_CAT_ID":"45046","TIME_SYSTEM":"UTC","RCS_SIZE":"LARGE","LAUNCH_DATE":"2020-01-29","BSTAR":"0.00059301000000","ECCENTRICITY":"0.00016800","OBJECT_NAME":"STARLINK-1129","PERIOD":"95.293","SEMIMAJOR_AXIS":"6910.887","ELEMENT_SET_NO":"999","INCLINATION":"52.9969","FILE":"3370190","MEAN_MOTION":"15.11131011","TLE_LINE2":"2 45046  52.9969 298.5667 0001680 128.7272 231.3869 15.11131011118319","RA_OF_ASC_NODE":"298.5667"}];
